0 DELTA 1 DEB
1 07019U 73086K   13283.46252745  .00000019  00000-0  45412-3 0  3109
2 07019 101.7249 268.6657 0064710 212.9921 302.3434 12.42293018809645
0 DELTA 1 DEB
1 07019U 73086K   13285.48036402  .00000012  00000-0  40288-3 0  3113
2 07019 101.7249 270.6179 0064733 209.1523 326.6487 12.42293513809892
0 DELTA 1 DEB
1 07019U 73086K   13287.70568384 -.00000006  00000-0  27371-3 0  3122
2 07019 101.7252 272.7706 0064745 204.9094 198.8860 12.42293850810175
0 DELTA 1 DEB
1 07019U 73086K   13289.71970267 -.00000006  00000-0  26912-3 0  3133
2 07019 101.7257 274.7188 0064767 201.0767 206.1228 12.42294113810427
0 DELTA 1 DEB
1 07019U 73086K   13291.73367164 -.00000001  00000-0  30888-3 0  3147
2 07019 101.7262 276.6669 0064790 197.2323 213.1509 12.42294203810675
0 DELTA 1 DEB
1 07019U 73086K   13293.74707002  .00000007  00000-0  36494-3 0  3154
2 07019 101.7266 278.6147 0064815 193.3753 217.6418 12.42294213810921
0 DELTA 1 DEB
1 07019U 73086K   13295.75999302  .00000023  00000-0  47933-3 0  3162
2 07019 101.7267 280.5622 0064836 189.5263 220.0002 12.42294328811170
